[{"OBJECT_NAME":"COSMOS 2251 DEB","OBJECT_ID":"1993-036AAF","EPOCH":"2026-03-02T12:15:40.545216","MEAN_MOTION":14.3841374,"ECCENTRICITY":0.00377655,"INCLINATION":74.0274,"RA_OF_ASC_NODE":215.7371,"ARG_OF_PERICENTER":234.6626,"MEAN_ANOMALY":125.0996,"EPHEMERIS_TYPE":0,"CLASSIFICATION_TYPE":"U","NORAD_CAT_ID":34761,"ELEMENT_SET_NO":999,"REV_AT_EPOCH":88796,"BSTAR":0.00086338496,"MEAN_MOTION_DOT":2.63e-5,"MEAN_MOTION_DDOT":0},{"OBJECT_NAME":"COSMOS 2251 DEB","OBJECT_ID":"1993-036AAM","EPOCH":"2026-03-02T17:32:41.941536","MEAN_MOTION":14.6121679,"ECCENTRICITY":0.00517671,"INCLINATION":74.0075,"RA_OF_ASC_NODE":171.1929,"ARG_OF_PERICENTER":318.6449,"MEAN_ANOMALY":41.0802,"EPHEMERIS_TYPE":0,"CLASSIFICATION_TYPE":"U","NORAD_CAT_ID":34784,"ELEMENT_SET_NO":999,"REV_AT_EPOCH":89703,"BSTAR":0.00053035452,"MEAN_MOTION_DOT":2.633e-5,"MEAN_MOTION_DDOT":0},{"OBJECT_NAME":"COSMOS 2251 DEB","OBJECT_ID":"1993-036AAT","EPOCH":"2026-03-02T12:23:35.855808","MEAN_MOTION":14.24965776,"ECCENTRICITY":0.00978862,"INCLINATION":74.0517,"RA_OF_ASC_NODE":100.0329,"ARG_OF_PERICENTER":144.2142,"MEAN_ANOMALY":345.4689,"EPHEMERIS_TYPE":0,"CLASSIFICATION_TYPE":"U","NORAD_CAT_ID":34790,"ELEMENT_SET_NO":999,"REV_AT_EPOCH":87709,"BSTAR":0.0005161422,"MEAN_MOTION_DOT":1.244e-5,"MEAN_MOTION_DDOT":0},{"OBJECT_NAME":"COSMOS 2251 DEB","OBJECT_ID":"1993-036AAV","EPOCH":"2026-03-02T21:54:35.162208","MEAN_MOTION":14.56770763,"ECCENTRICITY":0.0009488,"INCLINATION":74.0198,"RA_OF_ASC_NODE":17.4389,"ARG_OF_PERICENTER":99.3147,"MEAN_ANOMALY":317.1616,"EPHEMERIS_TYPE":0,"CLASSIFICATION_TYPE":"U","NORAD_CAT_ID":34792,"ELEMENT_SET_NO":999,"REV_AT_EPOCH":88817,"BSTAR":0.0012243,"MEAN_MOTION_DOT":5.456e-5,"MEAN_MOTION_DDOT":0},{"OBJECT_NAME":"COSMOS 2251 DEB","OBJECT_ID":"1993-036AAW","EPOCH":"2026-03-03T04:11:37.020192","MEAN_MOTION":14.38790387,"ECCENTRICITY":0.0052774,"INCLINATION":74.0008,"RA_OF_ASC_NODE":101.7491,"ARG_OF_PERICENTER":238.7846,"MEAN_ANOMALY":179.2222,"EPHEMERIS_TYPE":0,"CLASSIFICATION_TYPE":"U","NORAD_CAT_ID":34793,"ELEMENT_SET_NO":999,"REV_AT_EPOCH":88487,"BSTAR":0.0002451,"MEAN_MOTION_DOT":7.39e-6,"MEAN_MOTION_DDOT":0},{"OBJECT_NAME":"COSMOS 2251 DEB","OBJECT_ID":"1993-036AAZ","EPOCH":"2026-03-03T01:44:00.176928","MEAN_MOTION":14.49204499,"ECCENTRICITY":0.0097866,"INCLINATION":74.0282,"RA_OF_ASC_NODE":65.6647,"ARG_OF_PERICENTER":149.8558,"MEAN_ANOMALY":269.426,"EPHEMERIS_TYPE":0,"CLASSIFICATION_TYPE":"U","NORAD_CAT_ID":34796,"ELEMENT_SET_NO":999,"REV_AT_EPOCH":89191,"BSTAR":0.00051628,"MEAN_MOTION_DOT":2.061e-5,"MEAN_MOTION_DDOT":0},{"OBJECT_NAME":"COSMOS 2251 DEB","OBJECT_ID":"1993-036ABA","EPOCH":"2026-03-02T09:04:36.421248","MEAN_MOTION":14.43856474,"ECCENTRICITY":0.00696348,"INCLINATION":73.9786,"RA_OF_ASC_NODE":311.4847,"ARG_OF_PERICENTER":46.0141,"MEAN_ANOMALY":314.6727,"EPHEMERIS_TYPE":0,"CLASSIFICATION_TYPE":"U","NORAD_CAT_ID":34797,"ELEMENT_SET_NO":999,"REV_AT_EPOCH":88564,"BSTAR":0.0016097849,"MEAN_MOTION_DOT":5.627e-5,"MEAN_MOTION_DDOT":0},{"OBJECT_NAME":"COSMOS 2251 DEB","OBJECT_ID":"1993-036ABC","EPOCH":"2026-03-02T21:06:46.572480","MEAN_MOTION":13.50834009,"ECCENTRICITY":0.0436646,"INCLINATION":73.9354,"RA_OF_ASC_NODE":4.2405,"ARG_OF_PERICENTER":22.8061,"MEAN_ANOMALY":339.18,"EPHEMERIS_TYPE":0,"CLASSIFICATION_TYPE":"U","NORAD_CAT_ID":34813,"ELEMENT_SET_NO":999,"REV_AT_EPOCH":82737,"BSTAR":0.005914,"MEAN_MOTION_DOT":6.905e-5,"MEAN_MOTION_DDOT":0},{"OBJECT_NAME":"COSMOS 2251 DEB","OBJECT_ID":"1993-036ABD","EPOCH":"2026-03-02T18:10:09.658272","MEAN_MOTION":14.3729246,"ECCENTRICITY":0.005355,"INCLINATION":73.8958,"RA_OF_ASC_NODE":177.0044,"ARG_OF_PERICENTER":46.1339,"MEAN_ANOMALY":103.9667,"EPHEMERIS_TYPE":0,"CLASSIFICATION_TYPE":"U","NORAD_CAT_ID":34814,"ELEMENT_SET_NO":999,"REV_AT_EPOCH":88482,"BSTAR":0.00079241494,"MEAN_MOTION_DOT":2.376e-5,"MEAN_MOTION_DDOT":0},{"OBJECT_NAME":"COSMOS 2251 DEB","OBJECT_ID":"1993-036ABE","EPOCH":"2026-03-03T01:45:58.907808","MEAN_MOTION":14.79616812,"ECCENTRICITY":0.0053869,"INCLINATION":74.0426,"RA_OF_ASC_NODE":83.8998,"ARG_OF_PERICENTER":135.4022,"MEAN_ANOMALY":225.1507,"EPHEMERIS_TYPE":0,"CLASSIFICATION_TYPE":"U","NORAD_CAT_ID":34815,"ELEMENT_SET_NO":999,"REV_AT_EPOCH":89815,"BSTAR":0.00077885,"MEAN_MOTION_DOT":5.954e-5,"MEAN_MOTION_DDOT":0},{"OBJECT_NAME":"COSMOS 2251 DEB","OBJECT_ID":"1993-036ABF","EPOCH":"2026-03-02T22:17:48.091776","MEAN_MOTION":13.58517907,"ECCENTRICITY":0.037045,"INCLINATION":73.8902,"RA_OF_ASC_NODE":12.2678,"ARG_OF_PERICENTER":62.2087,"MEAN_ANOMALY":356.7935,"EPHEMERIS_TYPE":0,"CLASSIFICATION_TYPE":"U","NORAD_CAT_ID":34816,"ELEMENT_SET_NO":999,"REV_AT_EPOCH":83872,"BSTAR":0.0012364,"MEAN_MOTION_DOT":1.392e-5,"MEAN_MOTION_DDOT":0},{"OBJECT_NAME":"COSMOS 2251 DEB","OBJECT_ID":"1993-036ABH","EPOCH":"2026-03-03T05:04:27.759360","MEAN_MOTION":14.37089242,"ECCENTRICITY":0.002513,"INCLINATION":74.0362,"RA_OF_ASC_NODE":148.9652,"ARG_OF_PERICENTER":211.6391,"MEAN_ANOMALY":178.0916,"EPHEMERIS_TYPE":0,"CLASSIFICATION_TYPE":"U","NORAD_CAT_ID":34818,"ELEMENT_SET_NO":999,"REV_AT_EPOCH":88526,"BSTAR":0.00025384,"MEAN_MOTION_DOT":7.3e-6,"MEAN_MOTION_DDOT":0},{"OBJECT_NAME":"COSMOS 2251 DEB","OBJECT_ID":"1993-036ABJ","EPOCH":"2026-03-03T03:35:32.079840","MEAN_MOTION":14.65355111,"ECCENTRICITY":0.0012906,"INCLINATION":74.021,"RA_OF_ASC_NODE":347.901,"ARG_OF_PERICENTER":62.1424,"MEAN_ANOMALY":4.5985,"EPHEMERIS_TYPE":0,"CLASSIFICATION_TYPE":"U","NORAD_CAT_ID":34819,"ELEMENT_SET_NO":999,"REV_AT_EPOCH":89406,"BSTAR":0.00162,"MEAN_MOTION_DOT":8.742e-5,"MEAN_MOTION_DDOT":0},{"OBJECT_NAME":"COSMOS 2251 DEB","OBJECT_ID":"1993-036ABN","EPOCH":"2026-03-03T02:30:33.091488","MEAN_MOTION":14.55367542,"ECCENTRICITY":0.0153066,"INCLINATION":74.0421,"RA_OF_ASC_NODE":310.0952,"ARG_OF_PERICENTER":13.71,"MEAN_ANOMALY":346.8147,"EPHEMERIS_TYPE":0,"CLASSIFICATION_TYPE":"U","NORAD_CAT_ID":34823,"ELEMENT_SET_NO":999,"REV_AT_EPOCH":89550,"BSTAR":0.00052749,"MEAN_MOTION_DOT":2.649e-5,"MEAN_MOTION_DDOT":0},{"OBJECT_NAME":"COSMOS 2251 DEB","OBJECT_ID":"1993-036ABP","EPOCH":"2026-03-03T03:17:02.818752","MEAN_MOTION":14.4604744,"ECCENTRICITY":0.0021056,"INCLINATION":74.0273,"RA_OF_ASC_NODE":358.2592,"ARG_OF_PERICENTER":144.6861,"MEAN_ANOMALY":215.5697,"EPHEMERIS_TYPE":0,"CLASSIFICATION_TYPE":"U","NORAD_CAT_ID":34845,"ELEMENT_SET_NO":999,"REV_AT_EPOCH":88628,"BSTAR":0.00031184,"MEAN_MOTION_DOT":1.088e-5,"MEAN_MOTION_DDOT":0},{"OBJECT_NAME":"COSMOS 2251 DEB","OBJECT_ID":"1993-036ABQ","EPOCH":"2026-03-02T22:11:51.722880","MEAN_MOTION":14.47771068,"ECCENTRICITY":0.0024364,"INCLINATION":74.0292,"RA_OF_ASC_NODE":111.7591,"ARG_OF_PERICENTER":168.006,"MEAN_ANOMALY":192.1684,"EPHEMERIS_TYPE":0,"CLASSIFICATION_TYPE":"U","NORAD_CAT_ID":34846,"ELEMENT_SET_NO":999,"REV_AT_EPOCH":88564,"BSTAR":0.00063081,"MEAN_MOTION_DOT":2.313e-5,"MEAN_MOTION_DDOT":0},{"OBJECT_NAME":"COSMOS 2251 DEB","OBJECT_ID":"1993-036ABW","EPOCH":"2026-03-01T19:47:10.756320","MEAN_MOTION":14.37073866,"ECCENTRICITY":0.00170975,"INCLINATION":74.0314,"RA_OF_ASC_NODE":117.5212,"ARG_OF_PERICENTER":210.002,"MEAN_ANOMALY":150.0155,"EPHEMERIS_TYPE":0,"CLASSIFICATION_TYPE":"U","NORAD_CAT_ID":34852,"ELEMENT_SET_NO":999,"REV_AT_EPOCH":88670,"BSTAR":0.00011975592,"MEAN_MOTION_DOT":3.3e-6,"MEAN_MOTION_DDOT":0},{"OBJECT_NAME":"COSMOS 2251 DEB","OBJECT_ID":"1993-036ABY","EPOCH":"2026-03-03T03:39:41.732640","MEAN_MOTION":14.77533146,"ECCENTRICITY":0.0062459,"INCLINATION":74.0315,"RA_OF_ASC_NODE":0.8333,"ARG_OF_PERICENTER":92.4538,"MEAN_ANOMALY":268.379,"EPHEMERIS_TYPE":0,"CLASSIFICATION_TYPE":"U","NORAD_CAT_ID":34854,"ELEMENT_SET_NO":999,"REV_AT_EPOCH":73069,"BSTAR":0.00081478,"MEAN_MOTION_DOT":5.977e-5,"MEAN_MOTION_DDOT":0},{"OBJECT_NAME":"COSMOS 2251 DEB","OBJECT_ID":"1993-036ACA","EPOCH":"2026-03-03T00:32:41.990208","MEAN_MOTION":15.10920237,"ECCENTRICITY":0.0029622,"INCLINATION":73.9916,"RA_OF_ASC_NODE":279.1229,"ARG_OF_PERICENTER":35.2141,"MEAN_ANOMALY":115.3896,"EPHEMERIS_TYPE":0,"CLASSIFICATION_TYPE":"U","NORAD_CAT_ID":34856,"ELEMENT_SET_NO":999,"REV_AT_EPOCH":90322,"BSTAR":0.0017532,"MEAN_MOTION_DOT":0.0002961,"MEAN_MOTION_DDOT":0},{"OBJECT_NAME":"COSMOS 2251 DEB","OBJECT_ID":"1993-036ACB","EPOCH":"2026-03-03T02:53:29.230944","MEAN_MOTION":14.59683033,"ECCENTRICITY":0.0063374,"INCLINATION":74.0162,"RA_OF_ASC_NODE":313.4111,"ARG_OF_PERICENTER":57.3902,"MEAN_ANOMALY":109.18,"EPHEMERIS_TYPE":0,"CLASSIFICATION_TYPE":"U","NORAD_CAT_ID":34857,"ELEMENT_SET_NO":999,"REV_AT_EPOCH":89073,"BSTAR":0.00088888,"MEAN_MOTION_DOT":4.329e-5,"MEAN_MOTION_DDOT":0},{"OBJECT_NAME":"COSMOS 2251 DEB","OBJECT_ID":"1993-036ACD","EPOCH":"2026-03-02T17:27:10.175040","MEAN_MOTION":15.31004666,"ECCENTRICITY":0.00131685,"INCLINATION":74.0279,"RA_OF_ASC_NODE":171.6224,"ARG_OF_PERICENTER":327.6622,"MEAN_ANOMALY":32.3773,"EPHEMERIS_TYPE":0,"CLASSIFICATION_TYPE":"U","NORAD_CAT_ID":34859,"ELEMENT_SET_NO":999,"REV_AT_EPOCH":89575,"BSTAR":0.0066018271,"MEAN_MOTION_DOT":0.00203727,"MEAN_MOTION_DDOT":0},{"OBJECT_NAME":"COSMOS 2251 DEB","OBJECT_ID":"1993-036ACF","EPOCH":"2026-03-02T13:19:26.102208","MEAN_MOTION":15.127618,"ECCENTRICITY":0.0003266,"INCLINATION":74.0142,"RA_OF_ASC_NODE":246.5822,"ARG_OF_PERICENTER":238.6359,"MEAN_ANOMALY":177.5162,"EPHEMERIS_TYPE":0,"CLASSIFICATION_TYPE":"U","NORAD_CAT_ID":34861,"ELEMENT_SET_NO":999,"REV_AT_EPOCH":89295,"BSTAR":0.0026502,"MEAN_MOTION_DOT":0.00046761,"MEAN_MOTION_DDOT":0},{"OBJECT_NAME":"COSMOS 2251 DEB","OBJECT_ID":"1993-036ACM","EPOCH":"2026-03-02T16:00:24.746976","MEAN_MOTION":14.36821364,"ECCENTRICITY":0.00519981,"INCLINATION":74.0381,"RA_OF_ASC_NODE":286.9153,"ARG_OF_PERICENTER":292.5459,"MEAN_ANOMALY":126.2323,"EPHEMERIS_TYPE":0,"CLASSIFICATION_TYPE":"U","NORAD_CAT_ID":34874,"ELEMENT_SET_NO":999,"REV_AT_EPOCH":88192,"BSTAR":0.00075265064,"MEAN_MOTION_DOT":2.232e-5,"MEAN_MOTION_DDOT":0}]
